[{"OBJECT_NAME":"STARLINK-5257","OBJECT_ID":"2023-010AZ","EPOCH":"2026-03-09T22:42:44.276256","MEAN_MOTION":14.98332369,"ECCENTRICITY":0.00026988,"INCLINATION":70.0014,"RA_OF_ASC_NODE":3.7087,"ARG_OF_PERICENTER":255.8534,"MEAN_ANOMALY":104.2325,"EPHEMERIS_TYPE":0,"CLASSIFICATION_TYPE":"U","NORAD_CAT_ID":55316,"ELEMENT_SET_NO":999,"REV_AT_EPOCH":17468,"BSTAR":0.00024880287,"MEAN_MOTION_DOT":2.877e-5,"MEAN_MOTION_DDOT":0},{"OBJECT_NAME":"FENGYUN 1C DEB","OBJECT_ID":"1999-025BKG","EPOCH":"2026-03-07T13:45:43.096608","MEAN_MOTION":14.85582818,"ECCENTRICITY":0.0064954,"INCLINATION":96.5618,"RA_OF_ASC_NODE":101.964,"ARG_OF_PERICENTER":251.088,"MEAN_ANOMALY":261.3714,"EPHEMERIS_TYPE":0,"CLASSIFICATION_TYPE":"U","NORAD_CAT_ID":31202,"ELEMENT_SET_NO":999,"REV_AT_EPOCH":335,"BSTAR":0.0013766,"MEAN_MOTION_DOT":0.00012341,"MEAN_MOTION_DDOT":0}]
